#dP2023  8 26  0  0  0.00000000      96 __u+U ITR00 EXT  IAC
## 2276 518400.00000000   900.00000000 60182 0.0000000000000
+  118   C06C07C08C09C10C11C12C13C14C16C19C20C21C22C23C24C25
+        C26C27C28C29C30C32C33C34C35C36C37C38C39C40C41C42C43
+        C44C45C46E02E03E04E05E07E08E09E10E11E12E13E14E15E18
+        E19E21E24E25E26E27E30E31E33E34E36G01G02G03G04G05G06
+        G07G08G09G10G11G12G13G14G15G16G17G18G19G20G21G22G23
+        G24G25G26G27G28G29G30G31J02J03J04R01R02R03R04R05R07
+        R08R09R11R12R13R14R15R16R17R18R19R20R21R22R24R25  0
++         9 11 10  8 10  9  9  9  9  8  6  8  8  8  6  9  7
++         9  8  7  8  8  7  7  8 10  7  7  8 11  9  8 10  8
++         9  7  8  7  9  9  9  9  8  8  8  7  9  7  8  7  7
++         8  7  8  7  8  8  7  7  8  6  8  7  7  8  8  8  7
++         7  8  7  6  7  7  7  6  8  6  7  7  7  7  7  7  6
++         8  6  7  7  7  7  7  7  9 10  9  8  9  8  8  9  8
++         8  7  7  8  6  8  8  8  9  8  8  8  9  8  9  8  0
%c M  cc GPS ccc cccc cccc cccc cccc ccccc ccccc ccccc ccccc
%c cc cc ccc ccc cccc cccc cccc cccc ccccc ccccc ccccc ccccc
%f  0.0000000  0.000000000  0.00000000000  0.000000000000000
%f  0.0000000  0.000000000  0.00000000000  0.000000000000000
%i    0    0    0    0      0      0      0      0         0
%i    0    0    0    0      0      0      0      0         0
/* IAC                                ULTRA-RAPID PREDICTION
/* S/V CLOCKS ARE ALIGNED TO GNSS TIME                      
/* G:C1WC2W R:C1PC2P E:C1XC5X C:C2IC6I J:C1CC2S             
/* PCV:IGS20_2274 OL/AL:FES2004  NONE     YN ORB:CoN CLK:CoN
*  2023 08 26  5  0  0.00000000
PC06 -16894.924223  37734.613331  -8995.669935    936.383856
PC07  -3229.825359  33421.648861 -25291.744746     12.124875
PC08 -12355.463495  19446.481151  35247.363468    374.079182
PC09 -11978.520208  36977.422532 -16604.853070    246.225454
PC10   3494.792768  36014.217774 -20861.515078   -157.447467
PC11  14101.535974   6303.604915  23306.917945    798.733458
PC12   2803.499479  23051.200234  15500.225519    903.017404
PC13  -4454.099858  21874.624731  35879.307092    340.842674
PC14  21933.816514  13621.530591 -10508.831009    292.583498
PC16 -19384.950964  37179.623468  -5535.393758    -51.628935
PC19 -20875.001358  -5114.876914  17827.797791   -968.628782
PC20 -20105.970534 -19106.038000   3224.467911    333.285138
PC21   7010.652458  22707.566120  14614.899477   -956.354894
PC22  -9682.915160  12565.796064  22946.425206   -335.165628
PC23  21669.032049 -13174.356278  11662.830491   -892.434398
PC24  16965.947356  10738.841870 -19395.112725    324.042718
PC25  27357.924040  -2986.382428  -4697.375156    197.418654
PC26  -1806.218189  16836.727242 -22188.060866   -168.541596
PC27   2937.612046 -26518.277780  -8193.121946    189.875286
PC28  13674.575453 -22962.958462   8049.400560    142.169041
PC29 -17118.310090   4957.763708 -21478.576591    165.915673
PC30 -10145.913098 -16088.200798 -20422.919355     -3.988617
PC32  -7118.843493 -22644.892515 -14675.249516   -530.586901
PC33  20936.847951   5055.397271 -17739.102995   -947.324578
PC34  10951.707650  14808.999964  20955.481979    245.372932
PC35 -12951.542909  23332.458490  -8228.601253    560.008521
PC36 -27306.988927   1760.658057   5480.706840   -257.671075
PC37   3282.574837 -16887.461875  21994.121672   -814.190824
PC38 -20784.123852  20070.240662  30659.610136    100.613120
PC39 -20739.439316  36856.881977    657.587066     -4.489699
PC40  -6822.651653  29252.059065 -29451.079293    -34.209142
PC41  10225.798106 -12042.091656 -22958.459416   -884.326165
PC42  19527.793067  19837.287279  -1735.882843   -566.228641
PC43  17126.228267  -3908.748512  21669.626666     36.920356
PC44  -2061.746479  26683.382463   7934.869598    211.645122
PC45 -21300.689737  13300.235944 -12140.489407    -18.299748
PC46 -18054.269050  -9951.650858  18794.302522    -79.375214
PE02  19485.522965  17531.975961 -13760.956841     57.977531
PE03  12159.738345  24507.952968 -11288.979457    -49.624086
PE04 -17455.145113  -6144.239826  23107.175604   -197.737945
PE05   -268.425816  28708.945771   7198.846145     12.448766
PE07  12693.470975 -15755.718769 -21607.151006    -70.117240
PE08  17320.219056   6632.616048 -23069.294066   -136.177699
PE09 -12628.602603  15574.263248  21768.752485   -133.652926
PE10 -24919.220431  11422.990010 -11161.348453   -558.913601
PE11 -23189.919586  18374.798110   -956.542181   2803.226202
PE12 -22800.936715   3240.045123 -18607.642538   -672.521920
PE13  23410.892022 -18040.640712   1660.780275    -19.507969
PE14 -13488.324782  16461.229762 -17741.333472    321.975298
PE15  22585.336957  -2962.547474  18904.471703    -48.086783
PE18   3036.159334 -29204.158527   6133.669878    456.695862
PE19 -10675.809313 -26069.783278   9089.884629  -1769.586252
PE21   -343.507635 -17622.830632  23786.625220   -548.854691
PE24 -20496.722855   7095.562793 -20140.506364   -286.345038
PE25    -54.554515  17517.798536 -23848.149740     -0.830095
PE26   9834.251366 -22329.026242 -16768.778890    203.693223
PE27  19995.659571  -7539.270906  20493.710864   -133.904047
PE30  28305.398330   7270.152085   4736.915425   -448.147244
PE31 -28322.234668  -6884.324897  -5145.811638     -3.554255
PE33  -7948.531343 -14094.859883 -24789.445092     -1.165382
PE34   8598.395196  13603.439712  24832.100259    -63.568071
PE36 -10531.219439  22346.314086  16302.317024   -106.599363
PG01  10732.700142 -19819.344806 -14114.290279    167.309580
PG02  15560.040777 -20352.263369  -6155.111881   -561.324409
PG03    798.469794 -15403.746915 -21781.192786   -168.758385
PG04   1056.696716 -25862.935286  -5649.910854    136.884078
PG05 -16852.902414   7915.460999  18798.194041   -140.241520
PG06 -19976.759017    970.238566 -17463.848832    560.867872
PG07  -5860.330236 -14983.542108  21542.897522     85.243845
PG08   7400.571325 -20133.228938  15326.455083   -139.037096
PG09  -6588.138068 -25500.777112   3137.881110    -76.895110
PG10  24142.166345  11272.944090   2406.347449    -50.790087
PG11 -23157.506794  11518.722919  -5911.933065   -338.147058
PG12  -6056.925355  14023.881151 -22002.482696   -417.297639
PG13 -13050.079737  12506.084205  19195.213269    564.728763
PG14 -22327.899471 -13629.669978   5110.714681    165.470968
PG15  -4460.299806  21625.598755  14107.603168     71.330002
PG16  20904.340177  -2092.992960  16208.202141   -463.232279
PG17 -12844.610313 -15428.741801 -16898.426828    723.187855
PG18   7393.934626  13067.259287  21900.869308   -395.533467
PG19 -14703.802345  -7416.539357 -21113.885827    362.744113
PG20 -24067.221288   2772.094150  10700.517598    415.250363
PG21  16816.721897 -19467.245299  -3718.389540    150.102578
PG22 -24043.714334 -10654.334810  -1952.619305    134.405257
PG23  16595.376501  15816.419149  13563.206458     59.818860
PG24 -12638.076625  21379.050205  -9172.431172   -300.889122
PG25   9332.905506  17413.381885 -18188.967465    464.267502
PG26  25723.389874   3067.117466   6523.264125    231.417667
PG27  13386.904101  -8452.517339  21004.174880    -28.564242
PG28  19134.824584    618.043107 -18431.674788     -1.904960
PG29   4030.622621  25987.382720   3255.157537   -608.433590
PG30 -14891.911679  -7772.054656  20744.641613   -493.360008
PG31  23213.875391  -7837.552617 -10947.743658   -222.425550
PJ02 -28002.426254  14923.021628 -23142.748900     -3.060497
PJ03 -26767.637610  31953.787901  -1579.350451     -1.601901
PJ04 -24788.200336  27429.441870  26154.899853     70.496203
PR01 -15011.202102  -5775.323411  19798.410456     64.268223
PR02  -5347.975582  11334.374131  22267.641996    -22.491326
PR03   6916.053135  21723.584945  11546.474633     84.004199
PR04  14895.955409  20029.738531  -5269.847554    200.202734
PR05  14930.913658   7565.343444 -19252.174966    117.944558
PR07  -7437.895849 -21875.243158 -10715.384258     63.243155
PR08 -15128.294982 -19759.001895   5576.372278    -72.297338
PR09  17865.969841  -8864.832104  15874.477794    138.740642
PR11 -16470.957298  -7826.390796  17859.241592   -143.262479
PR12 -25488.067914    482.861655    716.302886     30.582846
PR13 -19614.130308   7763.734159 -14348.925905    -38.540402
PR14   -429.660061  11161.883614 -22914.328206     25.139299
PR15  17525.201380   7585.038639 -16881.811509     86.710754
PR16  25464.572585   -551.484209   -953.586916     18.075513
PR17  -6159.273784  21942.581709  11411.978273     12.062454
PR18   4626.936017  11984.392858  22057.484933     98.650114
PR19  12805.066534  -2348.693707  21935.853368   -244.862470
PR20  15255.843423 -19200.580340   6968.675009    -98.948679
PR21   5724.872682 -21597.032149 -12342.364805    -33.175760
PR22  -5246.263474 -11463.848381 -22148.865200    119.346993
PR24 -14508.388803  19998.446011  -6277.897577    -21.893454
PR25   7065.225741 -21779.143989 -11269.032461     40.828324
EOF
